STARLINK-37618          
1 69228U 26115T   26160.05374060  .00195194  00000+0  99293-3 0  9995
2 69228  97.2837 177.1037 0001561  90.4602 269.6845 15.80908816  3408
STARLINK-37679          
1 69229U 26115U   26160.05521855  .00169067  00000+0  86328-3 0  9997
2 69229  97.2835 177.1014 0001419  94.9544 265.1887 15.80894866  3404
STARLINK-37746          
1 69230U 26115V   26160.05675391  .00112039  00000+0  57691-3 0  9992
2 69230  97.2833 177.0992 0001006  58.7043 301.4324 15.80864246  3401
STARLINK-37557          
1 69231U 26115W   26159.80053962  .00747196  00000+0  35783-2 0  9993
2 69231  97.2839 176.8365 0001242 118.7157 241.4236 15.80809550  3361
STARLINK-37745          
1 69232U 26115X   26160.04952455  .00157670  00000+0  80663-3 0  9997
2 69232  97.2838 177.1099 0001130  72.1283 288.0108 15.80883173  3401
STARLINK-37739          
1 69233U 26115Y   26160.16670139 -.02260190  00000+0 -14840-1 0  9995
2 69233  97.2835 177.2206 0001368 103.1124 171.8175 15.78787171  3403
STARLINK-37755          
1 69234U 26115Z   26160.16670139 -.00091760  00000+0 -62018-3 0  9991
2 69234  97.2845 177.1991 0001414  89.4619 133.6210 15.75218212  3400
TJS-24                  
1 69235U 26116A   26160.14585769 -.00000215  00000+0  00000+0 0  9998
2 69235   0.0268 245.7575 0000682 174.2101 340.3755  1.00270829   141
STARLINK-37665          
1 69238U 26117A   26160.16670139  .00049137  00000+0  23881-3 0  9991
2 69238  53.1592 283.8834 0000409  69.5723 334.2045 15.81958665  2889
STARLINK-37558          
1 69239U 26117B   26160.16670139  .00052102  00000+0  25297-3 0  9991
2 69239  53.1590 283.8723 0000707  79.4042 329.7901 15.81955424  2880
STARLINK-37680          
1 69240U 26117C   26160.16670139  .00083026  00000+0  39999-3 0  9996
2 69240  53.1593 283.8548 0000912  78.8851 338.5198 15.81937951  2879
STARLINK-37742          
1 69241U 26117D   26160.16670139  .00043822  00000+0  21346-3 0  9994
2 69241  53.1594 283.8344 0000558  45.6328  21.9407 15.81960661  2883
STARLINK-37718          
1 69242U 26117E   26160.16670139  .00101013  00000+0  48472-3 0  9991
2 69242  53.1595 283.8194 0000928  90.9412 343.6649 15.81945758  2877
STARLINK-37735          
1 69243U 26117F   26160.16670139  .00070651  00000+0  34117-3 0  9996
2 69243  53.1596 283.8180 0000982  94.1260 341.0828 15.81950359  2886
STARLINK-37757          
1 69244U 26117G   26160.16670139  .00070817  00000+0  34186-3 0  9997
2 69244  53.1595 283.7900 0000497 106.7348 342.1192 15.81956012  2881
STARLINK-37767          
1 69245U 26117H   26160.16670139  .00077424  00000+0  37332-3 0  9995
2 69245  53.1589 283.7394 0000924  95.3484  17.8150 15.81946390  2889
STARLINK-35759          
1 69246U 26117J   26160.16670139 -.00030267  00000+0 -14256-3 0  9992
2 69246  53.1589 283.7312 0000618  85.9841  31.0678 15.82010147  2934
STARLINK-37238          
1 69247U 26117K   26160.16670139 -.00134560  00000+0 -65173-3 0  9998
2 69247  53.1583 283.6781 0000884  69.4319  72.9178 15.82063582  2884
STARLINK-37412          
1 69248U 26117L   26160.16670139 -.00963488  00000+0 -50050-2 0  9995
2 69248  53.1580 283.6395 0001116  72.9744  88.2199 15.82690699  2959
STARLINK-37398          
1 69249U 26117M   26160.16670139 -.00536378  00000+0 -25501-2 0  9993
2 69249  53.1574 283.6342 0000512  77.3900  86.1764 15.83509695  2958
STARLINK-37499          
1 69250U 26117N   26160.16670139 -.01119928  00000+0 -57714-2 0  9995
2 69250  53.1579 283.6190 0001148  55.5103 115.3767 15.82829440  2955
STARLINK-37489          
1 69251U 26117P   26160.16670139 -.01467309  00000+0 -75415-2 0  9993
2 69251  53.1578 283.5987 0000628  80.8689  99.7920 15.83165671  2956
STARLINK-37434          
1 69252U 26117Q   26160.16670139 -.01982310  00000+0 -98100-2 0  9994
2 69252  53.1570 283.5663 0001271  73.4782 122.5613 15.84355808  2887
STARLINK-37368          
1 69253U 26117R   26160.16670139 -.01947405  00000+0 -88214-2 0  9996
2 69253  53.1562 283.4967 0000978  68.3403 161.3240 15.86112208  2953
STARLINK-37517          
1 69254U 26117S   26160.16670139 -.01949900  00000+0 -87305-2 0  9999
2 69254  53.1561 283.4834 0000752  75.2813 161.0324 15.86354353  2957
STARLINK-37378          
1 69255U 26117T   26160.16670139 -.01976178  00000+0 -89633-2 0  9993
2 69255  53.1561 283.4771 0000834  69.7412 169.3568 15.86133375  2873
STARLINK-37396          
1 69256U 26117U   26160.16670139 -.02011280  00000+0 -89787-2 0  9999
2 69256  53.1557 283.4500 0001036  85.9091 165.9438 15.86507510  2950
STARLINK-37508          
1 69257U 26117V   26160.16670139 -.01929028  00000+0 -84937-2 0  9999
2 69257  53.1555 283.4315 0000721  82.2018 178.3173 15.86659690  2874
STARLINK-37276          
1 69258U 26117W   26160.16670139 -.01717396  83710-3 -45668-2 0  9994
2 69258  53.1551 283.2672 0000808  63.6806 275.5412 15.94036095  2872
