OBJECT_NAME,OBJECT_ID,EPOCH,MEAN_MOTION,ECCENTRICITY,INCLINATION,RA_OF_ASC_NODE,ARG_OF_PERICENTER,MEAN_ANOMALY,EPHEMERIS_TYPE,CLASSIFICATION_TYPE,NORAD_CAT_ID,ELEMENT_SET_NO,REV_AT_EPOCH,BSTAR,MEAN_MOTION_DOT,MEAN_MOTION_DDOT
STARLINK-37618,2026-115T,2026-06-09T01:17:23.187840,15.80908816,.0001561,97.2837,177.1037,90.4602,269.6845,0,U,69228,999,340,.99293E-3,.195194E-2,0
STARLINK-37679,2026-115U,2026-06-09T01:19:30.882720,15.80894866,.0001419,97.2835,177.1014,94.9544,265.1887,0,U,69229,999,340,.86328E-3,.169067E-2,0
STARLINK-37746,2026-115V,2026-06-09T01:21:43.537824,15.80864246,.0001006,97.2833,177.0992,58.7043,301.4324,0,U,69230,999,340,.57691E-3,.112039E-2,0
STARLINK-37557,2026-115W,2026-06-08T19:12:46.623168,15.80809550,.0001242,97.2839,176.8365,118.7157,241.4236,0,U,69231,999,336,.35783E-2,.747196E-2,0
STARLINK-37745,2026-115X,2026-06-09T01:11:18.921120,15.80883173,.000113,97.2838,177.1099,72.1283,288.0108,0,U,69232,999,340,.80663E-3,.15767E-2,0
STARLINK-37739,2026-115Y,2026-06-09T04:00:03.000096,15.78787171,.0001368,97.2835,177.2206,103.1124,171.8175,0,U,69233,999,340,-.1484E-1,-.226019E-1,0
STARLINK-37755,2026-115Z,2026-06-09T04:00:03.000096,15.75218212,.0001414,97.2845,177.1991,89.4619,133.6210,0,U,69234,999,340,-.62018E-3,-.9176E-3,0
TJS-24,2026-116A,2026-06-09T03:30:02.104416,1.00270829,.0000682,0.0268,245.7575,174.2101,340.3755,0,U,69235,999,14,0,-.215E-5,0
STARLINK-37665,2026-117A,2026-06-09T04:00:03.000096,15.81958665,.0000409,53.1592,283.8834,69.5723,334.2045,0,U,69238,999,288,.23881E-3,.49137E-3,0
STARLINK-37558,2026-117B,2026-06-09T04:00:03.000096,15.81955424,.0000707,53.1590,283.8723,79.4042,329.7901,0,U,69239,999,288,.25297E-3,.52102E-3,0
STARLINK-37680,2026-117C,2026-06-09T04:00:03.000096,15.81937951,.0000912,53.1593,283.8548,78.8851,338.5198,0,U,69240,999,287,.39999E-3,.83026E-3,0
STARLINK-37742,2026-117D,2026-06-09T04:00:03.000096,15.81960661,.0000558,53.1594,283.8344,45.6328,21.9407,0,U,69241,999,288,.21346E-3,.43822E-3,0
STARLINK-37718,2026-117E,2026-06-09T04:00:03.000096,15.81945758,.0000928,53.1595,283.8194,90.9412,343.6649,0,U,69242,999,287,.48472E-3,.101013E-2,0
STARLINK-37735,2026-117F,2026-06-09T04:00:03.000096,15.81950359,.0000982,53.1596,283.8180,94.1260,341.0828,0,U,69243,999,288,.34117E-3,.70651E-3,0
STARLINK-37757,2026-117G,2026-06-09T04:00:03.000096,15.81956012,.0000497,53.1595,283.7900,106.7348,342.1192,0,U,69244,999,288,.34186E-3,.70817E-3,0
STARLINK-37767,2026-117H,2026-06-09T04:00:03.000096,15.81946390,.0000924,53.1589,283.7394,95.3484,17.8150,0,U,69245,999,288,.37332E-3,.77424E-3,0
STARLINK-35759,2026-117J,2026-06-09T04:00:03.000096,15.82010147,.0000618,53.1589,283.7312,85.9841,31.0678,0,U,69246,999,293,-.14256E-3,-.30267E-3,0
STARLINK-37238,2026-117K,2026-06-09T04:00:03.000096,15.82063582,.0000884,53.1583,283.6781,69.4319,72.9178,0,U,69247,999,288,-.65173E-3,-.13456E-2,0
STARLINK-37412,2026-117L,2026-06-09T04:00:03.000096,15.82690699,.0001116,53.1580,283.6395,72.9744,88.2199,0,U,69248,999,295,-.5005E-2,-.963488E-2,0
STARLINK-37398,2026-117M,2026-06-09T04:00:03.000096,15.83509695,.0000512,53.1574,283.6342,77.3900,86.1764,0,U,69249,999,295,-.25501E-2,-.536378E-2,0
STARLINK-37499,2026-117N,2026-06-09T04:00:03.000096,15.82829440,.0001148,53.1579,283.6190,55.5103,115.3767,0,U,69250,999,295,-.57714E-2,-.1119928E-1,0
STARLINK-37489,2026-117P,2026-06-09T04:00:03.000096,15.83165671,.0000628,53.1578,283.5987,80.8689,99.7920,0,U,69251,999,295,-.75415E-2,-.1467309E-1,0
STARLINK-37434,2026-117Q,2026-06-09T04:00:03.000096,15.84355808,.0001271,53.1570,283.5663,73.4782,122.5613,0,U,69252,999,288,-.981E-2,-.198231E-1,0
STARLINK-37368,2026-117R,2026-06-09T04:00:03.000096,15.86112208,.0000978,53.1562,283.4967,68.3403,161.3240,0,U,69253,999,295,-.88214E-2,-.1947405E-1,0
STARLINK-37517,2026-117S,2026-06-09T04:00:03.000096,15.86354353,.0000752,53.1561,283.4834,75.2813,161.0324,0,U,69254,999,295,-.87305E-2,-.19499E-1,0
STARLINK-37378,2026-117T,2026-06-09T04:00:03.000096,15.86133375,.0000834,53.1561,283.4771,69.7412,169.3568,0,U,69255,999,287,-.89633E-2,-.1976178E-1,0
STARLINK-37396,2026-117U,2026-06-09T04:00:03.000096,15.86507510,.0001036,53.1557,283.4500,85.9091,165.9438,0,U,69256,999,295,-.89787E-2,-.201128E-1,0
STARLINK-37508,2026-117V,2026-06-09T04:00:03.000096,15.86659690,.0000721,53.1555,283.4315,82.2018,178.3173,0,U,69257,999,287,-.84937E-2,-.1929028E-1,0
STARLINK-37276,2026-117W,2026-06-09T04:00:03.000096,15.94036095,.0000808,53.1551,283.2672,63.6806,275.5412,0,U,69258,999,287,-.45668E-2,-.1717396E-1,.8371E-3
